{
  "links" : {
    "next" : "https://api.nasa.gov/neo/rest/v1/feed?start_date=2012-10-16&end_date=2012-10-16&detailed=true&api_key=t0TVs3DtDT2H8Oy2Zy8m2eVrNsAVKAexjcZXUckd",
    "prev" : "https://api.nasa.gov/neo/rest/v1/feed?start_date=2012-10-14&end_date=2012-10-14&detailed=true&api_key=t0TVs3DtDT2H8Oy2Zy8m2eVrNsAVKAexjcZXUckd",
    "self" : "https://api.nasa.gov/neo/rest/v1/feed?start_date=2012-10-15&end_date=2012-10-15&detailed=true&api_key=t0TVs3DtDT2H8Oy2Zy8m2eVrNsAVKAexjcZXUckd"
  },
  "element_count" : 7,
  "near_earth_objects" : {
    "2012-10-15" : [ {
      "links" : {
        "self" : "https://api.nasa.gov/neo/rest/v1/neo/3267065?api_key=t0TVs3DtDT2H8Oy2Zy8m2eVrNsAVKAexjcZXUckd"
      },
      "neo_reference_id" : "3267065",
      "name" : "(2005 CN)",
      "nasa_jpl_url" : "http://ssd.jpl.nasa.gov/sbdb.cgi?sstr=3267065",
      "absolute_magnitude_h" : 22.8,
      "estimated_diameter" : {
        "kilometers" : {
          "estimated_diameter_min" : 0.0732073989,
          "estimated_diameter_max" : 0.1636967205
        },
        "meters" : {
          "estimated_diameter_min" : 73.2073989347,
          "estimated_diameter_max" : 163.696720474
        },
        "miles" : {
          "estimated_diameter_min" : 0.0454889547,
          "estimated_diameter_max" : 0.1017163949
        },
        "feet" : {
          "estimated_diameter_min" : 240.181762721,
          "estimated_diameter_max" : 537.0627483999
        }
      },
      "is_potentially_hazardous_asteroid" : false,
      "close_approach_data" : [ {
        "close_approach_date" : "2012-10-15",
        "epoch_date_close_approach" : 1350284400000,
        "relative_velocity" : {
          "kilometers_per_second" : "17.9776502043",
          "kilometers_per_hour" : "64719.5407354012",
          "miles_per_hour" : "40214.2057419497"
        },
        "miss_distance" : {
          "astronomical" : "0.3976148104",
          "lunar" : "154.672164917",
          "kilometers" : "59482328",
          "miles" : "36960604"
        },
        "orbiting_body" : "Earth"
      } ],
      "orbital_data" : {
        "orbit_id" : "21",
        "orbit_determination_date" : "2017-04-06 09:11:30",
        "orbit_uncertainty" : "2",
        "minimum_orbit_intersection" : ".0293221",
        "jupiter_tisserand_invariant" : "5.990",
        "epoch_osculation" : "2458000.5",
        "eccentricity" : ".1848822643792391",
        "semi_major_axis" : "1.01578647650069",
        "inclination" : "2.300296344221766",
        "ascending_node_longitude" : "308.1439601722831",
        "orbital_period" : "373.9401232210299",
        "perihelion_distance" : ".8279855725994334",
        "perihelion_argument" : "321.657327896297",
        "aphelion_distance" : "1.203587380401946",
        "perihelion_time" : "2458014.826271445925",
        "mean_anomaly" : "346.2077979861913",
        "mean_motion" : ".9627209749492699",
        "equinox" : "J2000"
      }
    }, {
      "links" : {
        "self" : "https://api.nasa.gov/neo/rest/v1/neo/3602685?api_key=t0TVs3DtDT2H8Oy2Zy8m2eVrNsAVKAexjcZXUckd"
      },
      "neo_reference_id" : "3602685",
      "name" : "(2012 HJ1)",
      "nasa_jpl_url" : "http://ssd.jpl.nasa.gov/sbdb.cgi?sstr=3602685",
      "absolute_magnitude_h" : 17.9,
      "estimated_diameter" : {
        "kilometers" : {
          "estimated_diameter_min" : 0.6991252322,
          "estimated_diameter_max" : 1.5632915441
        },
        "meters" : {
          "estimated_diameter_min" : 699.1252322458,
          "estimated_diameter_max" : 1563.2915440869
        },
        "miles" : {
          "estimated_diameter_min" : 0.4344161447,
          "estimated_diameter_max" : 0.97138403
        },
        "feet" : {
          "estimated_diameter_min" : 2293.7180269613,
          "estimated_diameter_max" : 5128.9094295021
        }
      },
      "is_potentially_hazardous_asteroid" : true,
      "close_approach_data" : [ {
        "close_approach_date" : "2012-10-15",
        "epoch_date_close_approach" : 1350284400000,
        "relative_velocity" : {
          "kilometers_per_second" : "17.6114211416",
          "kilometers_per_hour" : "63401.116109877",
          "miles_per_hour" : "39394.9879517177"
        },
        "miss_distance" : {
          "astronomical" : "0.347921758",
          "lunar" : "135.3415679932",
          "kilometers" : "52048356",
          "miles" : "32341348"
        },
        "orbiting_body" : "Earth"
      } ],
      "orbital_data" : {
        "orbit_id" : "57",
        "orbit_determination_date" : "2017-04-06 08:50:05",
        "orbit_uncertainty" : "1",
        "minimum_orbit_intersection" : ".035299",
        "jupiter_tisserand_invariant" : "3.441",
        "epoch_osculation" : "2458000.5",
        "eccentricity" : ".6065609465764609",
        "semi_major_axis" : "2.003090836491577",
        "inclination" : "31.28972109469361",
        "ascending_node_longitude" : "44.68256267130697",
        "orbital_period" : "1035.498306978311",
        "perihelion_distance" : ".7880941626306113",
        "perihelion_argument" : "291.1942990450119",
        "aphelion_distance" : "3.218087510352543",
        "perihelion_time" : "2458241.688324318395",
        "mean_anomaly" : "276.148779607381",
        "mean_motion" : ".3476587045810981",
        "equinox" : "J2000"
      }
    }, {
      "links" : {
        "self" : "https://api.nasa.gov/neo/rest/v1/neo/3611407?api_key=t0TVs3DtDT2H8Oy2Zy8m2eVrNsAVKAexjcZXUckd"
      },
      "neo_reference_id" : "3611407",
      "name" : "(2012 UD)",
      "nasa_jpl_url" : "http://ssd.jpl.nasa.gov/sbdb.cgi?sstr=3611407",
      "absolute_magnitude_h" : 23.6,
      "estimated_diameter" : {
        "kilometers" : {
          "estimated_diameter_min" : 0.0506471459,
          "estimated_diameter_max" : 0.1132504611
        },
        "meters" : {
          "estimated_diameter_min" : 50.6471458835,
          "estimated_diameter_max" : 113.2504610618
        },
        "miles" : {
          "estimated_diameter_min" : 0.0314706677,
          "estimated_diameter_max" : 0.0703705522
        },
        "feet" : {
          "estimated_diameter_min" : 166.1651821003,
          "estimated_diameter_max" : 371.5566426699
        }
      },
      "is_potentially_hazardous_asteroid" : false,
      "close_approach_data" : [ {
        "close_approach_date" : "2012-10-15",
        "epoch_date_close_approach" : 1350284400000,
        "relative_velocity" : {
          "kilometers_per_second" : "6.7001951338",
          "kilometers_per_hour" : "24120.7024817845",
          "miles_per_hour" : "14987.6664948622"
        },
        "miss_distance" : {
          "astronomical" : "0.071327788",
          "lunar" : "27.7465114594",
          "kilometers" : "10670486",
          "miles" : "6630332.5"
        },
        "orbiting_body" : "Earth"
      } ],
      "orbital_data" : {
        "orbit_id" : "11",
        "orbit_determination_date" : "2017-04-06 08:48:30",
        "orbit_uncertainty" : "6",
        "minimum_orbit_intersection" : ".0591346",
        "jupiter_tisserand_invariant" : "3.941",
        "epoch_osculation" : "2458000.5",
        "eccentricity" : ".4175176425193315",
        "semi_major_axis" : "1.804832864556712",
        "inclination" : "8.723637588332137",
        "ascending_node_longitude" : "11.3018625787462",
        "orbital_period" : "885.633248857604",
        "perihelion_distance" : "1.051283301805581",
        "perihelion_argument" : "15.04784629929403",
        "aphelion_distance" : "2.558382427307842",
        "perihelion_time" : "2457992.897731106882",
        "mean_anomaly" : "3.090237189099065",
        "mean_motion" : ".4064888038749349",
        "equinox" : "J2000"
      }
    } ]
  }
}